{"type": "FeatureCollection", "features": [ {"type": "Feature", "properties": {"norad_id": 44476, "name": "INTELSAT 39 (IS-39)", "group": "intelsat", "lat": -0.004679559604433762, "lon": -135.04786644564967, "alt_km": 35786.584586724915, "timestamp": "2025-12-19T04:59:47.968528+00:00", "meta": {"OBJECT_NAME": "INTELSAT 39 (IS-39)", "OBJECT_ID": "2019-049B", "EPOCH": "2025-12-18T22:20:38.925312", "MEAN_MOTION": 1.00271229, "ECCENTRICITY": 9.49e-05, "INCLINATION": 0.0027, "RA_OF_ASC_NODE": 71.9788, "ARG_OF_PERICENTER": 58.0735, "MEAN_ANOMALY": 354.8397, "EPHEMERIS_TYPE": 0, "CLASSIFICATION_TYPE": "U", "NORAD_CAT_ID": 44476, "ELEMENT_SET_NO": 999, "REV_AT_EPOCH": 2332, "BSTAR": 0, "MEAN_MOTION_DOT": 5.8e-07, "MEAN_MOTION_DDOT": 0}, "tle": {"line1": "1 44476U 19049B   25352.93100608  .00000058  00000+0  00000+0 0  9993", "line2": "2 44476   0.0027  71.9788 0000949  58.0735 354.8397  1.00271229 23329"}}, "geometry": {"type": "Point", "coordinates": [-135.04786644564967, -0.004679559604433762]}}, {"type": "Feature", "properties": {"norad_id": 46114, "name": "GALAXY 30 (G-30)", "group": "intelsat", "lat": 0.036442076551999034, "lon": 38.01594045839862, "alt_km": 35791.06428022739, "timestamp": "2025-12-19T04:59:47.968540+00:00", "meta": {"OBJECT_NAME": "GALAXY 30 (G-30)", "OBJECT_ID": "2020-056C", "EPOCH": "2025-12-18T22:58:21.508896", "MEAN_MOTION": 1.00272074, "ECCENTRICITY": 0.00020303, "INCLINATION": 0.0278, "RA_OF_ASC_NODE": 359.9556, "ARG_OF_PERICENTER": 271.9117, "MEAN_ANOMALY": 35.5331, "EPHEMERIS_TYPE": 0, "CLASSIFICATION_TYPE": "U", "NORAD_CAT_ID": 46114, "ELEMENT_SET_NO": 999, "REV_AT_EPOCH": 1948, "BSTAR": 0, "MEAN_MOTION_DOT": 0, "MEAN_MOTION_DDOT": 0}, "tle": {"line1": "1 46114U 20056C   25352.95719339  .00000000  00000+0  00000+0 0  9990", "line2": "2 46114   0.0278 359.9556 0002030 271.9117  35.5331  1.00272074 19485"}}, "geometry": {"type": "Point", "coordinates": [38.01594045839862, 0.036442076551999034]}}, {"type": "Feature", "properties": {"norad_id": 54026, "name": "GALAXY 33 (G-33)", "group": "intelsat", "lat": 0.010778915642735545, "lon": 30.018315577048316, "alt_km": 35789.89442623718, "timestamp": "2025-12-19T04:59:47.968552+00:00", "meta": {"OBJECT_NAME": "GALAXY 33 (G-33)", "OBJECT_ID": "2022-128A", "EPOCH": "2025-12-18T22:56:06.724032", "MEAN_MOTION": 1.00270804, "ECCENTRICITY": 0.0001547, "INCLINATION": 0.0114, "RA_OF_ASC_NODE": 28.7669, "ARG_OF_PERICENTER": 238.3912, "MEAN_ANOMALY": 31.6864, "EPHEMERIS_TYPE": 0, "CLASSIFICATION_TYPE": "U", "NORAD_CAT_ID": 54026, "ELEMENT_SET_NO": 999, "REV_AT_EPOCH": 1193, "BSTAR": 0, "MEAN_MOTION_DOT": 1.04e-06, "MEAN_MOTION_DDOT": 0}, "tle": {"line1": "1 54026U 22128A   25352.95563338  .00000104  00000+0  00000+0 0  9994", "line2": "2 54026   0.0114  28.7669 0001547 238.3912  31.6864  1.00270804 11932"}}, "geometry": {"type": "Point", "coordinates": [30.018315577048316, 0.010778915642735545]}}, {"type": "Feature", "properties": {"norad_id": 54027, "name": "GALAXY 34 (G-34)", "group": "intelsat", "lat": 0.0318155298065692, "lon": 34.07981858394145, "alt_km": 35792.783453534284, "timestamp": "2025-12-19T04:59:47.968563+00:00", "meta": {"OBJECT_NAME": "GALAXY 34 (G-34)", "OBJECT_ID": "2022-128B", "EPOCH": "2025-12-18T22:57:14.116032", "MEAN_MOTION": 1.00267465, "ECCENTRICITY": 0.00018429, "INCLINATION": 0.0224, "RA_OF_ASC_NODE": 356.9779, "ARG_OF_PERICENTER": 262.1215, "MEAN_ANOMALY": 44.0913, "EPHEMERIS_TYPE": 0, "CLASSIFICATION_TYPE": "U", "NORAD_CAT_ID": 54027, "ELEMENT_SET_NO": 999, "REV_AT_EPOCH": 1210, "BSTAR": 0, "MEAN_MOTION_DOT": 0, "MEAN_MOTION_DDOT": 0}, "tle": {"line1": "1 54027U 22128B   25352.95641338  .00000000  00000+0  00000+0 0  9997", "line2": "2 54027   0.0224 356.9779 0001842 262.1215  44.0913  1.00267465 12104"}}, "geometry": {"type": "Point", "coordinates": [34.07981858394145, 0.0318155298065692]}}, {"type": "Feature", "properties": {"norad_id": 54243, "name": "GALAXY 31 (G-31)", "group": "intelsat", "lat": 0.00892354173414445, "lon": 42.01672895223057, "alt_km": 35789.401894889445, "timestamp": "2025-12-19T04:59:47.968574+00:00", "meta": {"OBJECT_NAME": "GALAXY 31 (G-31)", "OBJECT_ID": "2022-153A", "EPOCH": "2025-12-18T22:59:28.900896", "MEAN_MOTION": 1.00270918, "ECCENTRICITY": 0.00013721, "INCLINATION": 0.0177, "RA_OF_ASC_NODE": 56.7066, "ARG_OF_PERICENTER": 223.3433, "MEAN_ANOMALY": 31.6392, "EPHEMERIS_TYPE": 0, "CLASSIFICATION_TYPE": "U", "NORAD_CAT_ID": 54243, "ELEMENT_SET_NO": 999, "REV_AT_EPOCH": 532, "BSTAR": 0, "MEAN_MOTION_DOT": 3.8e-07, "MEAN_MOTION_DDOT": 0}, "tle": {"line1": "1 54243U 22153A   25352.95797339  .00000038  00000+0  00000+0 0  9999", "line2": "2 54243   0.0177  56.7066 0001372 223.3433  31.6392  1.00270918  5320"}}, "geometry": {"type": "Point", "coordinates": [42.01672895223057, 0.00892354173414445]}}, {"type": "Feature", "properties": {"norad_id": 54244, "name": "GALAXY 32 (G-32)", "group": "intelsat", "lat": 0.036000872262417716, "lon": 72.02282835712589, "alt_km": 35790.628767137314, "timestamp": "2025-12-19T04:59:47.968586+00:00", "meta": {"OBJECT_NAME": "GALAXY 32 (G-32)", "OBJECT_ID": "2022-153B", "EPOCH": "2025-12-17T04:19:59.261664", "MEAN_MOTION": 1.00271531, "ECCENTRICITY": 0.000259, "INCLINATION": 0.0104, "RA_OF_ASC_NODE": 339.7375, "ARG_OF_PERICENTER": 338.8221, "MEAN_ANOMALY": 101.4983, "EPHEMERIS_TYPE": 0, "CLASSIFICATION_TYPE": "U", "NORAD_CAT_ID": 54244, "ELEMENT_SET_NO": 999, "REV_AT_EPOCH": 1131, "BSTAR": 0, "MEAN_MOTION_DOT": -1.5e-06, "MEAN_MOTION_DDOT": 0}, "tle": {"line1": "1 54244U 22153B   25351.18054701 -.00000150  00000+0  00000+0 0  9999", "line2": "2 54244   0.0104 339.7375 0002590 338.8221 101.4983  1.00271531 11318"}}, "geometry": {"type": "Point", "coordinates": [72.02282835712589, 0.036000872262417716]}}, {"type": "Feature", "properties": {"norad_id": 54741, "name": "GALAXY 35 (G-35)", "group": "intelsat", "lat": 0.03420159254692778, "lon": 69.89893157691552, "alt_km": 35794.70969122841, "timestamp": "2025-12-19T04:59:47.968599+00:00", "meta": {"OBJECT_NAME": "GALAXY 35 (G-35)", "OBJECT_ID": "2022-170A", "EPOCH": "2025-12-18T19:42:02.811168", "MEAN_MOTION": 1.00270854, "ECCENTRICITY": 0.0002139, "INCLINATION": 0.0202, "RA_OF_ASC_NODE": 30.723, "ARG_OF_PERICENTER": 242.1308, "MEAN_ANOMALY": 17.228, "EPHEMERIS_TYPE": 0, "CLASSIFICATION_TYPE": "U", "NORAD_CAT_ID": 54741, "ELEMENT_SET_NO": 999, "REV_AT_EPOCH": 1108, "BSTAR": 0, "MEAN_MOTION_DOT": 0, "MEAN_MOTION_DDOT": 0}, "tle": {"line1": "1 54741U 22170A   25352.82086587  .00000000  00000+0  00000+0 0  9992", "line2": "2 54741   0.0202  30.7230 0002139 242.1308  17.2280  1.00270854 11084"}}, "geometry": {"type": "Point", "coordinates": [69.89893157691552, 0.03420159254692778]}}, {"type": "Feature", "properties": {"norad_id": 54742, "name": "GALAXY 36 (G-36)", "group": "intelsat", "lat": 0.04290249467712707, "lon": 73.98101486147786, "alt_km": 35787.08929230007, "timestamp": "2025-12-19T04:59:47.968610+00:00", "meta": {"OBJECT_NAME": "GALAXY 36 (G-36)", "OBJECT_ID": "2022-170B", "EPOCH": "2025-12-18T14:35:04.267392", "MEAN_MOTION": 1.00266895, "ECCENTRICITY": 1.786e-05, "INCLINATION": 0.0157, "RA_OF_ASC_NODE": 348.9818, "ARG_OF_PERICENTER": 26.5322, "MEAN_ANOMALY": 201.7131, "EPHEMERIS_TYPE": 0, "CLASSIFICATION_TYPE": "U", "NORAD_CAT_ID": 54742, "ELEMENT_SET_NO": 999, "REV_AT_EPOCH": 1096, "BSTAR": 0, "MEAN_MOTION_DOT": 0, "MEAN_MOTION_DDOT": 0}, "tle": {"line1": "1 54742U 22170B   25352.60768828  .00000000  00000+0  00000+0 0  9994", "line2": "2 54742   0.0157 348.9818 0000178  26.5322 201.7131  1.00266895 10962"}}, "geometry": {"type": "Point", "coordinates": [73.98101486147786, 0.04290249467712707]}}, {"type": "Feature", "properties": {"norad_id": 57493, "name": "GALAXY 37 (G-37)", "group": "intelsat", "lat": 0.03322951540939566, "lon": 36.01649086754971, "alt_km": 35791.109758639264, "timestamp": "2025-12-19T04:59:47.968622+00:00", "meta": {"OBJECT_NAME": "GALAXY 37 (G-37)", "OBJECT_ID": "2023-112A", "EPOCH": "2025-12-18T22:57:51.556608", "MEAN_MOTION": 1.00270432, "ECCENTRICITY": 0.00019137, "INCLINATION": 0.0157, "RA_OF_ASC_NODE": 342.5704, "ARG_OF_PERICENTER": 288.3403, "MEAN_ANOMALY": 34.3674, "EPHEMERIS_TYPE": 0, "CLASSIFICATION_TYPE": "U", "NORAD_CAT_ID": 57493, "ELEMENT_SET_NO": 999, "REV_AT_EPOCH": 873, "BSTAR": 0, "MEAN_MOTION_DOT": 7.3e-07, "MEAN_MOTION_DDOT": 0}, "tle": {"line1": "1 57493U 23112A   25352.95684672  .00000073  00000+0  00000+0 0  9999", "line2": "2 57493   0.0157 342.5704 0001913 288.3403  34.3674  1.00270432  8734"}}, "geometry": {"type": "Point", "coordinates": [36.01649086754971, 0.03322951540939566]}}]}